{
  "type": "FeatureCollection",
  "features": [
    {
      "type": "Feature",
      "properties": {
        "norad_id": 44334,
        "name": "EUTELSAT 7C",
        "group": "eutelsat",
        "lat": 0.023014430659219036,
        "lon": -36.5258727840661,
        "alt_km": 35780.74680151234,
        "timestamp": "2025-12-25T14:48:24.472766+00:00",
        "meta_object_name": "EUTELSAT 7C",
        "meta_object_id": "2019-034B",
        "meta_epoch": "2025-12-24T14:50:38.546016",
        "meta_mean_motion": 1.00270796,
        "meta_eccentricity": 0.00031593,
        "meta_inclination": 0.0726,
        "meta_ra_of_asc_node": 177.7928,
        "meta_arg_of_pericenter": 79.9691,
        "meta_mean_anomaly": 65.2631,
        "meta_ephemeris_type": 0,
        "meta_classification_type": "U",
        "meta_norad_cat_id": 44334,
        "meta_element_set_no": 999,
        "meta_rev_at_epoch": 508,
        "meta_bstar": 0,
        "meta_mean_motion_dot": 6.9e-07,
        "meta_mean_motion_ddot": 0,
        "tle_line1": "1 44334U 19034B   25358.61850169  .00000069  00000+0  00000+0 0  9997",
        "tle_line2": "2 44334   0.0726 177.7928 0003159  79.9691  65.2631  1.00270796  5083"
      },
      "geometry": {
        "type": "Point",
        "coordinates": [
          -36.5258727840661,
          0.023014430659219036
        ]
      }
    },
    {
      "type": "Feature",
      "properties": {
        "norad_id": 44624,
        "name": "EUTELSAT 5 WEST B",
        "group": "eutelsat",
        "lat": -0.05022025768095102,
        "lon": -48.50689199450698,
        "alt_km": 35775.70993828006,
        "timestamp": "2025-12-25T14:48:24.472776+00:00",
        "meta_object_name": "EUTELSAT 5 WEST B",
        "meta_object_id": "2019-067A",
        "meta_epoch": "2025-12-25T06:11:32.851104",
        "meta_mean_motion": 1.0027129,
        "meta_eccentricity": 0.00031685,
        "meta_inclination": 0.063,
        "meta_ra_of_asc_node": 344.5526,
        "meta_arg_of_pericenter": 288.486,
        "meta_mean_anomaly": 268.8705,
        "meta_ephemeris_type": 0,
        "meta_classification_type": "U",
        "meta_norad_cat_id": 44624,
        "meta_element_set_no": 999,
        "meta_rev_at_epoch": 2269,
        "meta_bstar": 0,
        "meta_mean_motion_dot": -2.1e-07,
        "meta_mean_motion_ddot": 0,
        "tle_line1": "1 44624U 19067A   25359.25801911 -.00000021  00000+0  00000+0 0  9996",
        "tle_line2": "2 44624   0.0630 344.5526 0003168 288.4860 268.8705  1.00271290 22691"
      },
      "geometry": {
        "type": "Point",
        "coordinates": [
          -48.50689199450698,
          -0.05022025768095102
        ]
      }
    },
    {
      "type": "Feature",
      "properties": {
        "norad_id": 45027,
        "name": "EUTELSAT KONNECT",
        "group": "eutelsat",
        "lat": -0.06786767822613984,
        "lon": -36.323058344212434,
        "alt_km": 35782.025308696604,
        "timestamp": "2025-12-25T14:48:24.472787+00:00",
        "meta_object_name": "EUTELSAT KONNECT",
        "meta_object_id": "2020-005B",
        "meta_epoch": "2025-12-24T14:50:46.034304",
        "meta_mean_motion": 1.00269906,
        "meta_eccentricity": 0.00014622,
        "meta_inclination": 0.0704,
        "meta_ra_of_asc_node": 94.2724,
        "meta_arg_of_pericenter": 186.2921,
        "meta_mean_anomaly": 42.7194,
        "meta_ephemeris_type": 0,
        "meta_classification_type": "U",
        "meta_norad_cat_id": 45027,
        "meta_element_set_no": 999,
        "meta_rev_at_epoch": 2258,
        "meta_bstar": 0,
        "meta_mean_motion_dot": 7e-07,
        "meta_mean_motion_ddot": 0,
        "tle_line1": "1 45027U 20005B   25358.61858836  .00000070  00000+0  00000+0 0  9998",
        "tle_line2": "2 45027   0.0704  94.2724 0001462 186.2921  42.7194  1.00269906 22588"
      },
      "geometry": {
        "type": "Point",
        "coordinates": [
          -36.323058344212434,
          -0.06786767822613984
        ]
      }
    },
    {
      "type": "Feature",
      "properties": {
        "norad_id": 49056,
        "name": "EUTELSAT QUANTUM",
        "group": "eutelsat",
        "lat": -0.005570491037039885,
        "lon": 4.209831270980651,
        "alt_km": 35784.23954337035,
        "timestamp": "2025-12-25T14:48:24.472797+00:00",
        "meta_object_name": "EUTELSAT QUANTUM",
        "meta_object_id": "2021-069B",
        "meta_epoch": "2025-12-24T23:35:55.741056",
        "meta_mean_motion": 1.00270986,
        "meta_eccentricity": 0.00034804,
        "meta_inclination": 0.0115,
        "meta_ra_of_asc_node": 15.7317,
        "meta_arg_of_pericenter": 266.2745,
        "meta_mean_anomaly": 213.4278,
        "meta_ephemeris_type": 0,
        "meta_classification_type": "U",
        "meta_norad_cat_id": 49056,
        "meta_element_set_no": 999,
        "meta_rev_at_epoch": 1618,
        "meta_bstar": 0,
        "meta_mean_motion_dot": 1.47e-06,
        "meta_mean_motion_ddot": 0,
        "tle_line1": "1 49056U 21069B   25358.98328404  .00000147  00000+0  00000+0 0  9993",
        "tle_line2": "2 49056   0.0115  15.7317 0003480 266.2745 213.4278  1.00270986 16180"
      },
      "geometry": {
        "type": "Point",
        "coordinates": [
          4.209831270980651,
          -0.005570491037039885
        ]
      }
    },
    {
      "type": "Feature",
      "properties": {
        "norad_id": 53765,
        "name": "EUTELSAT KONNECT VHTS",
        "group": "eutelsat",
        "lat": -0.053789668961624085,
        "lon": -40.79481950787449,
        "alt_km": 35783.733107290165,
        "timestamp": "2025-12-25T14:48:24.472807+00:00",
        "meta_object_name": "EUTELSAT KONNECT VHTS",
        "meta_object_id": "2022-110A",
        "meta_epoch": "2025-12-24T21:40:21.809280",
        "meta_mean_motion": 1.00267478,
        "meta_eccentricity": 0.0002493,
        "meta_inclination": 0.0601,
        "meta_ra_of_asc_node": 98.2899,
        "meta_arg_of_pericenter": 150.2235,
        "meta_mean_anomaly": 172.9674,
        "meta_ephemeris_type": 0,
        "meta_classification_type": "U",
        "meta_norad_cat_id": 53765,
        "meta_element_set_no": 999,
        "meta_rev_at_epoch": 507,
        "meta_bstar": 0,
        "meta_mean_motion_dot": 3.8e-07,
        "meta_mean_motion_ddot": 0,
        "tle_line1": "1 53765U 22110A   25358.90303020  .00000038  00000+0  00000+0 0  9991",
        "tle_line2": "2 53765   0.0601  98.2899 0002493 150.2235 172.9674  1.00267478  5079"
      },
      "geometry": {
        "type": "Point",
        "coordinates": [
          -40.79481950787449,
          -0.053789668961624085
        ]
      }
    },
    {
      "type": "Feature",
      "properties": {
        "norad_id": 54048,
        "name": "EUTELSAT HOTBIRD 13F",
        "group": "eutelsat",
        "lat": 0.020065765274450822,
        "lon": -30.552065184770807,
        "alt_km": 35778.44339179127,
        "timestamp": "2025-12-25T14:48:24.472818+00:00",
        "meta_object_name": "EUTELSAT HOTBIRD 13F",
        "meta_object_id": "2022-134A",
        "meta_epoch": "2025-12-24T16:35:06.042624",
        "meta_mean_motion": 1.00270762,
        "meta_eccentricity": 0.00022006,
        "meta_inclination": 0.055,
        "meta_ra_of_asc_node": 289.1731,
        "meta_arg_of_pericenter": 72.2821,
        "meta_mean_anomaly": 353.7761,
        "meta_ephemeris_type": 0,
        "meta_classification_type": "U",
        "meta_norad_cat_id": 54048,
        "meta_element_set_no": 999,
        "meta_rev_at_epoch": 1162,
        "meta_bstar": 0,
        "meta_mean_motion_dot": 1.08e-06,
        "meta_mean_motion_ddot": 0,
        "tle_line1": "1 54048U 22134A   25358.69104216  .00000108  00000+0  00000+0 0  9992",
        "tle_line2": "2 54048   0.0550 289.1731 0002200  72.2821 353.7761  1.00270762 11627"
      },
      "geometry": {
        "type": "Point",
        "coordinates": [
          -30.552065184770807,
          0.020065765274450822
        ]
      }
    },
    {
      "type": "Feature",
      "properties": {
        "norad_id": 54225,
        "name": "EUTELSAT HOTBIRD 13G",
        "group": "eutelsat",
        "lat": 0.03125346285770888,
        "lon": -30.54237301375122,
        "alt_km": 35793.234737168095,
        "timestamp": "2025-12-25T14:48:24.472828+00:00",
        "meta_object_name": "EUTELSAT HOTBIRD 13G",
        "meta_object_id": "2022-146A",
        "meta_epoch": "2025-12-24T00:28:38.654112",
        "meta_mean_motion": 1.00268836,
        "meta_eccentricity": 0.00017131,
        "meta_inclination": 0.0535,
        "meta_ra_of_asc_node": 227.8066,
        "meta_arg_of_pericenter": 307.349,
        "meta_mean_anomaly": 297.8001,
        "meta_ephemeris_type": 0,
        "meta_classification_type": "U",
        "meta_norad_cat_id": 54225,
        "meta_element_set_no": 999,
        "meta_rev_at_epoch": 571,
        "meta_bstar": 0,
        "meta_mean_motion_dot": 1.08e-06,
        "meta_mean_motion_ddot": 0,
        "tle_line1": "1 54225U 22146A   25358.01989183  .00000108  00000+0  00000+0 0  9992",
        "tle_line2": "2 54225   0.0535 227.8066 0001713 307.3490 297.8001  1.00268836  5716"
      },
      "geometry": {
        "type": "Point",
        "coordinates": [
          -30.54237301375122,
          0.03125346285770888
        ]
      }
    }
  ]
}